{"doc_id":"place:toronto","index_type":"places","place_id":"geonames:6167865","place_name":"Toronto, Canada","granularity":"city","lat":43.65,"lon":-79.38,"importance":0.84,"searchable_text":"Toronto Ontario Canada major city"}
{"doc_id":"place:ottawa","index_type":"places","place_id":"geonames:6094817","place_name":"Ottawa, Canada","granularity":"city","lat":45.42,"lon":-75.7,"importance":0.75,"searchable_text":"Ottawa Ontario Canada capital city"}
{"doc_id":"place:united_states","index_type":"places","place_id":"geonames:6252001","place_name":"United States","granularity":"country","lat":37.09,"lon":-95.71,"importance":1.0,"searchable_text":"United States USA country federal government"}
{"doc_id":"place:somalia","index_type":"places","place_id":"geonames:51537","place_name":"Somalia","granularity":"country","lat":5.15,"lon":46.2,"importance":0.55,"searchable_text":"Somalia country horn of africa"}
{"doc_id":"entity:scotiabank_arena","index_type":"entities","place_id":"geonames:6167865","place_name":"Toronto, Canada","granularity":"city","lat":43.65,"lon":-79.38,"importance":0.72,"searchable_text":"Scotiabank Arena indoor arena Bay Street downtown Toronto Ontario Canada"}
{"doc_id":"entity:justin_trudeau","index_type":"entities","place_id":"geonames:6094817","place_name":"Ottawa, Canada","granularity":"city","lat":45.42,"lon":-75.7,"importance":0.74,"searchable_text":"Justin Trudeau Canadian politician prime minister Parliament Ottawa Canada"}
{"doc_id":"entity:mark_carney","index_type":"entities","place_id":"geonames:6094817","place_name":"Ottawa, Canada","granularity":"city","lat":45.42,"lon":-75.7,"importance":0.67,"searchable_text":"Mark Carney Canadian politician prime minister Ottawa Canada"}
{"doc_id":"entity:donald_trump","index_type":"entities","place_id":"geonames:6252001","place_name":"United States","granularity":"country","lat":37.09,"lon":-95.71,"importance":0.9,"searchable_text":"Donald Trump president United States federal deportation immigration"}
{"doc_id":"entity:us_military_context","index_type":"entities","place_id":"geonames:6252001","place_name":"United States","granularity":"country","lat":37.09,"lon":-95.71,"importance":0.86,"searchable_text":"US military forces strike operation Pentagon federal command United States"}
{"doc_id":"event:super_bowl_lx","index_type":"events","place_id":"geonames:5393015","place_name":"Santa Clara, California","granularity":"city","lat":37.35,"lon":-121.95,"importance":0.78,"searchable_text":"Super Bowl LX 2026 halftime event venue Santa Clara California"}
